{
    "links": {
        "self": "http://www.neowsapp.com/rest/v1/neo/3762129?api_key=iIulBulltgU6a56xZRHN4H3l9WmuAYTsLGpBGhQ2"
    },
    "id": "3762129",
    "neo_reference_id": "3762129",
    "name": "(2016 UD42)",
    "designation": "2016 UD42",
    "nasa_jpl_url": "http://ssd.jpl.nasa.gov/sbdb.cgi?sstr=3762129",
    "absolute_magnitude_h": 25.7,
    "estimated_diameter": {
        "kilometers": {
            "estimated_diameter_min": 0.0192555078,
            "estimated_diameter_max": 0.0430566244
        },
        "meters": {
            "estimated_diameter_min": 19.2555078188,
            "estimated_diameter_max": 43.0566244241
        },
        "miles": {
            "estimated_diameter_min": 0.0119648141,
            "estimated_diameter_max": 0.0267541378
        },
        "feet": {
            "estimated_diameter_min": 63.1742402722,
            "estimated_diameter_max": 141.2618956756
        }
    },
    "is_potentially_hazardous_asteroid": false,
    "close_approach_data": [
        {
            "close_approach_date": "1944-03-30",
            "close_approach_date_full": "1944-Mar-30 19:49",
            "epoch_date_close_approach": -812779860000,
            "relative_velocity": {
                "kilometers_per_second": "12.1280517631",
                "kilometers_per_hour": "43660.9863471686",
                "miles_per_hour": "27129.2389888838"
            },
            "miss_distance": {
                "astronomical": "0.0150805366",
                "lunar": "5.8663287374",
                "kilometers": "2256016.153817042",
                "miles": "1401823.4345654996"
            },
            "orbiting_body": "Mars"
        },
        {
            "close_approach_date": "2016-10-26",
            "close_approach_date_full": "2016-Oct-26 15:00",
            "epoch_date_close_approach": 1477494000000,
            "relative_velocity": {
                "kilometers_per_second": "6.6230934536",
                "kilometers_per_hour": "23843.1364328519",
                "miles_per_hour": "14815.1977462906"
            },
            "miss_distance": {
                "astronomical": "0.0461280257",
                "lunar": "17.9438019973",
                "kilometers": "6900654.392025259",
                "miles": "4287867.8081322142"
            },
            "orbiting_body": "Earth"
        }
    ],
    "orbital_data": {
        "orbit_id": "5",
        "orbit_determination_date": "2017-04-06 08:22:40",
        "first_observation_date": "2016-10-28",
        "last_observation_date": "2016-11-21",
        "data_arc_in_days": 24,
        "observations_used": 31,
        "orbit_uncertainty": "8",
        "minimum_orbit_intersection": ".0454024",
        "jupiter_tisserand_invariant": "3.312",
        "epoch_osculation": "2457691.5",
        "eccentricity": ".5622394730315948",
        "semi_major_axis": "2.368885769742866",
        "inclination": "1.415791947518495",
        "ascending_node_longitude": "63.09769586809929",
        "orbital_period": "1331.725161915986",
        "perihelion_distance": "1.037004682890593",
        "perihelion_argument": "334.7590305850159",
        "aphelion_distance": "3.700766856595138",
        "perihelion_time": "2457691.664257294503",
        "mean_anomaly": "359.9555969747271",
        "mean_motion": ".2703260479677797",
        "equinox": "J2000",
        "orbit_class": {
            "orbit_class_type": "AMO",
            "orbit_class_description": "Near-Earth asteroid orbits similar to that of 1221 Amor",
            "orbit_class_range": "1.017 AU < q (perihelion) < 1.3 AU"
        }
    },
    "is_sentry_object": false
}